COSMOS 2251 DEB         
1 35464U 93036ALJ 17345.51396128  .00000956  00000-0  18672-3 0  9995
2 35464  74.0168  33.1546 0048436 186.9440 240.4174 14.63666933145996
